GLOBALSTAR M075         
1 37192U 10054E   24317.22371331 -.00000075  00000+0  16269-3 0  9990
2 37192  51.9925 122.1418 0000840  97.3523  73.4896 12.62268986648976
GLOBALSTAR M073         
1 37193U 10054F   24317.50606911 -.00000100  00000+0  19419-4 0  9997
2 37193  52.0083  34.9353 0000528 134.2590 240.1370 12.62272290650527
GLOBALSTAR M083         
1 37739U 11033A   24316.84113737 -.00000072  00000+0  17602-3 0  9995
2 37739  51.9876 345.9900 0000508 105.3750  66.1463 12.62267809619769
GLOBALSTAR M088         
1 37740U 11033B   24317.52732253 -.00000091  00000+0  69295-4 0  9990
2 37740  51.9733 249.5724 0000757  69.1730 102.7972 12.62264934615323
GLOBALSTAR M091         
1 37741U 11033C   24316.71523685 -.00000081  00000+0  12906-3 0  9993
2 37741  51.9989 215.2151 0001115  81.4251 296.9647 12.62270388615982
GLOBALSTAR M085         
1 37742U 11033D   24316.85901416 -.00000068  00000+0  19811-3 0  9998
2 37742  51.9842 166.0064 0001258  92.2954 281.0120 12.62269274616743
GLOBALSTAR M081         
1 37743U 11033E   24317.07767205 -.00000063  00000+0  22537-3 0  9994
2 37743  51.9932 167.9934 0001090 102.9724  64.3617 12.62263579616800
GLOBALSTAR M089         
1 37744U 11033F   24316.76692409 -.00000076  00000+0  15681-3 0  9999
2 37744  51.9903 123.2075 0000668 107.8636 265.6920 12.62272303617489
